STARLINK-30811          
1 58167U 23166T   23325.16667824 -.01684119  00000+0 -38248-1 0  9997
2 58167  53.0544 148.6432 0000882 109.7715 267.7423 15.45836680  4658
STARLINK-30812          
1 58168U 23166U   23325.16667824 -.01687400  00000+0 -38328-1 0  9993
2 58168  53.0544 148.6445 0000765 102.4635 274.4623 15.45840213  4658
STARLINK-30771          
1 58169U 23166V   23325.16667824 -.01686319  00000+0 -38306-1 0  9998
2 58169  53.0545 148.6407 0000801 103.1437 275.5434 15.45835787  4817
STARLINK-30764          
1 58170U 23166W   23325.16667824 -.01684251  00000+0 -38256-1 0  9997
2 58170  53.0545 148.6395 0000950 105.7807 273.4944 15.45832615  4819
STARLINK-30752          
1 58171U 23166X   23325.16667824 -.01697354  00000+0 -38579-1 0  9994
2 58171  53.0546 148.6384 0001087  91.7512 288.1072 15.45839192  4821
STARLINK-30753          
1 58175U 23167A   23324.91667824 -.01699012  00000+0 -29118-1 0  9993
2 58175  43.0003  38.4500 0001500 266.3343 353.6639 15.53531895  4500
STARLINK-30824          
1 58176U 23167B   23324.91667824 -.01699942  00000+0 -29137-1 0  9997
2 58176  43.0002  38.4485 0001424 262.6401 357.9587 15.53531481  4501
2023-165C               
1 58172U 23165C   23324.87594794  .00000002  00000+0  55108-4 0  9991
2 58172  67.1477  52.3664 0016184 321.6411  38.3521 13.97199621  3138
