{
	"ndm": {
		"omm": [
			{
				"header": {
					"CREATION_DATE": "",
					"ORIGINATOR": ""
				},
				"body": {
					"segment": {
						"metadata": {
							"OBJECT_NAME": "STARLINK-30811",
							"OBJECT_ID": "2023-166T",
							"CENTER_NAME": "EARTH",
							"REF_FRAME": "TEME",
							"TIME_SYSTEM": "UTC",
							"MEAN_ELEMENT_THEORY": "SGP4"
						},
						"data": {
							"meanElements": {
								"EPOCH": "2023-11-21T04:00:00.999936",
								"MEAN_MOTION": 15.4583668,
								"ECCENTRICITY": 0.0000882,
								"INCLINATION": 53.0544,
								"RA_OF_ASC_NODE": 148.6432,
								"ARG_OF_PERICENTER": 109.7715,
								"MEAN_ANOMALY": 267.7423
							},
							"tleParameters": {
								"EPHEMERIS_TYPE": 0,
								"CLASSIFICATION_TYPE": "U",
								"NORAD_CAT_ID": 58167,
								"ELEMENT_SET_NO": 999,
								"REV_AT_EPOCH": 465,
								"BSTAR": -0.038248,
								"MEAN_MOTION_DOT": -0.01684119,
								"MEAN_MOTION_DDOT": 0
							}
						}
					}
				}
			},
			{
				"header": {
					"CREATION_DATE": "",
					"ORIGINATOR": ""
				},
				"body": {
					"segment": {
						"metadata": {
							"OBJECT_NAME": "STARLINK-30812",
							"OBJECT_ID": "2023-166U",
							"CENTER_NAME": "EARTH",
							"REF_FRAME": "TEME",
							"TIME_SYSTEM": "UTC",
							"MEAN_ELEMENT_THEORY": "SGP4"
						},
						"data": {
							"meanElements": {
								"EPOCH": "2023-11-21T04:00:00.999936",
								"MEAN_MOTION": 15.45840213,
								"ECCENTRICITY": 0.0000765,
								"INCLINATION": 53.0544,
								"RA_OF_ASC_NODE": 148.6445,
								"ARG_OF_PERICENTER": 102.4635,
								"MEAN_ANOMALY": 274.4623
							},
							"tleParameters": {
								"EPHEMERIS_TYPE": 0,
								"CLASSIFICATION_TYPE": "U",
								"NORAD_CAT_ID": 58168,
								"ELEMENT_SET_NO": 999,
								"REV_AT_EPOCH": 465,
								"BSTAR": -0.038328,
								"MEAN_MOTION_DOT": -0.016874,
								"MEAN_MOTION_DDOT": 0
							}
						}
					}
				}
			},
			{
				"header": {
					"CREATION_DATE": "",
					"ORIGINATOR": ""
				},
				"body": {
					"segment": {
						"metadata": {
							"OBJECT_NAME": "STARLINK-30771",
							"OBJECT_ID": "2023-166V",
							"CENTER_NAME": "EARTH",
							"REF_FRAME": "TEME",
							"TIME_SYSTEM": "UTC",
							"MEAN_ELEMENT_THEORY": "SGP4"
						},
						"data": {
							"meanElements": {
								"EPOCH": "2023-11-21T04:00:00.999936",
								"MEAN_MOTION": 15.45835787,
								"ECCENTRICITY": 0.0000801,
								"INCLINATION": 53.0545,
								"RA_OF_ASC_NODE": 148.6407,
								"ARG_OF_PERICENTER": 103.1437,
								"MEAN_ANOMALY": 275.5434
							},
							"tleParameters": {
								"EPHEMERIS_TYPE": 0,
								"CLASSIFICATION_TYPE": "U",
								"NORAD_CAT_ID": 58169,
								"ELEMENT_SET_NO": 999,
								"REV_AT_EPOCH": 481,
								"BSTAR": -0.038306,
								"MEAN_MOTION_DOT": -0.01686319,
								"MEAN_MOTION_DDOT": 0
							}
						}
					}
				}
			},
			{
				"header": {
					"CREATION_DATE": "",
					"ORIGINATOR": ""
				},
				"body": {
					"segment": {
						"metadata": {
							"OBJECT_NAME": "STARLINK-30764",
							"OBJECT_ID": "2023-166W",
							"CENTER_NAME": "EARTH",
							"REF_FRAME": "TEME",
							"TIME_SYSTEM": "UTC",
							"MEAN_ELEMENT_THEORY": "SGP4"
						},
						"data": {
							"meanElements": {
								"EPOCH": "2023-11-21T04:00:00.999936",
								"MEAN_MOTION": 15.45832615,
								"ECCENTRICITY": 0.000095,
								"INCLINATION": 53.0545,
								"RA_OF_ASC_NODE": 148.6395,
								"ARG_OF_PERICENTER": 105.7807,
								"MEAN_ANOMALY": 273.4944
							},
							"tleParameters": {
								"EPHEMERIS_TYPE": 0,
								"CLASSIFICATION_TYPE": "U",
								"NORAD_CAT_ID": 58170,
								"ELEMENT_SET_NO": 999,
								"REV_AT_EPOCH": 481,
								"BSTAR": -0.038256,
								"MEAN_MOTION_DOT": -0.01684251,
								"MEAN_MOTION_DDOT": 0
							}
						}
					}
				}
			},
			{
				"header": {
					"CREATION_DATE": "",
					"ORIGINATOR": ""
				},
				"body": {
					"segment": {
						"metadata": {
							"OBJECT_NAME": "STARLINK-30752",
							"OBJECT_ID": "2023-166X",
							"CENTER_NAME": "EARTH",
							"REF_FRAME": "TEME",
							"TIME_SYSTEM": "UTC",
							"MEAN_ELEMENT_THEORY": "SGP4"
						},
						"data": {
							"meanElements": {
								"EPOCH": "2023-11-21T04:00:00.999936",
								"MEAN_MOTION": 15.45839192,
								"ECCENTRICITY": 0.0001087,
								"INCLINATION": 53.0546,
								"RA_OF_ASC_NODE": 148.6384,
								"ARG_OF_PERICENTER": 91.7512,
								"MEAN_ANOMALY": 288.1072
							},
							"tleParameters": {
								"EPHEMERIS_TYPE": 0,
								"CLASSIFICATION_TYPE": "U",
								"NORAD_CAT_ID": 58171,
								"ELEMENT_SET_NO": 999,
								"REV_AT_EPOCH": 482,
								"BSTAR": -0.038579,
								"MEAN_MOTION_DOT": -0.01697354,
								"MEAN_MOTION_DDOT": 0
							}
						}
					}
				}
			},
			{
				"header": {
					"CREATION_DATE": "",
					"ORIGINATOR": ""
				},
				"body": {
					"segment": {
						"metadata": {
							"OBJECT_NAME": "2023-165C",
							"OBJECT_ID": "2023-165C",
							"CENTER_NAME": "EARTH",
							"REF_FRAME": "TEME",
							"TIME_SYSTEM": "UTC",
							"MEAN_ELEMENT_THEORY": "SGP4"
						},
						"data": {
							"meanElements": {
								"EPOCH": "2023-11-20T21:01:21.902016",
								"MEAN_MOTION": 13.97199621,
								"ECCENTRICITY": 0.0016184,
								"INCLINATION": 67.1477,
								"RA_OF_ASC_NODE": 52.3664,
								"ARG_OF_PERICENTER": 321.6411,
								"MEAN_ANOMALY": 38.3521
							},
							"tleParameters": {
								"EPHEMERIS_TYPE": 0,
								"CLASSIFICATION_TYPE": "U",
								"NORAD_CAT_ID": 58172,
								"ELEMENT_SET_NO": 999,
								"REV_AT_EPOCH": 313,
								"BSTAR": 0.000055108,
								"MEAN_MOTION_DOT": 2e-8,
								"MEAN_MOTION_DDOT": 0
							}
						}
					}
				}
			},
			{
				"header": {
					"CREATION_DATE": "",
					"ORIGINATOR": ""
				},
				"body": {
					"segment": {
						"metadata": {
							"OBJECT_NAME": "STARLINK-30753",
							"OBJECT_ID": "2023-167A",
							"CENTER_NAME": "EARTH",
							"REF_FRAME": "TEME",
							"TIME_SYSTEM": "UTC",
							"MEAN_ELEMENT_THEORY": "SGP4"
						},
						"data": {
							"meanElements": {
								"EPOCH": "2023-11-20T22:00:00.999936",
								"MEAN_MOTION": 15.53531895,
								"ECCENTRICITY": 0.00015,
								"INCLINATION": 43.0003,
								"RA_OF_ASC_NODE": 38.45,
								"ARG_OF_PERICENTER": 266.3343,
								"MEAN_ANOMALY": 353.6639
							},
							"tleParameters": {
								"EPHEMERIS_TYPE": 0,
								"CLASSIFICATION_TYPE": "U",
								"NORAD_CAT_ID": 58175,
								"ELEMENT_SET_NO": 999,
								"REV_AT_EPOCH": 450,
								"BSTAR": -0.029118,
								"MEAN_MOTION_DOT": -0.01699012,
								"MEAN_MOTION_DDOT": 0
							}
						}
					}
				}
			},
			{
				"header": {
					"CREATION_DATE": "",
					"ORIGINATOR": ""
				},
				"body": {
					"segment": {
						"metadata": {
							"OBJECT_NAME": "STARLINK-30824",
							"OBJECT_ID": "2023-167B",
							"CENTER_NAME": "EARTH",
							"REF_FRAME": "TEME",
							"TIME_SYSTEM": "UTC",
							"MEAN_ELEMENT_THEORY": "SGP4"
						},
						"data": {
							"meanElements": {
								"EPOCH": "2023-11-20T22:00:00.999936",
								"MEAN_MOTION": 15.53531481,
								"ECCENTRICITY": 0.0001424,
								"INCLINATION": 43.0002,
								"RA_OF_ASC_NODE": 38.4485,
								"ARG_OF_PERICENTER": 262.6401,
								"MEAN_ANOMALY": 357.9587
							},
							"tleParameters": {
								"EPHEMERIS_TYPE": 0,
								"CLASSIFICATION_TYPE": "U",
								"NORAD_CAT_ID": 58176,
								"ELEMENT_SET_NO": 999,
								"REV_AT_EPOCH": 450,
								"BSTAR": -0.029137,
								"MEAN_MOTION_DOT": -0.01699942,
								"MEAN_MOTION_DDOT": 0
							}
						}
					}
				}
			}
		]
	}
}